CELESTIS-17 & SHERPA-FX1
1 47486U 21006CB  26068.64311433  .00007207  00000+0  24301-3 0  9993
2 47486  97.2397 112.1052 0006630 178.1385 181.9882 15.30994801284065
STARLINK-34363          
1 64497U 25133AB  26068.44965454  .00013108  00000+0  45497-3 0  9991
2 64497  53.1610 117.7629 0001463  77.9990 282.1175 15.30124969 41153
